P/2015 P4 (PANSTARRS),e,8.7174,104.7467,280.5745,6.048337,0.0662598,0.58503567,134.5251,08/12.0/2021,2000,g 14.0,4.0
# From MPC102952
P/2015 PD229 (Cameron-ISON),e,2.0263,342.6315,352.5127,7.184721,0.0511787,0.32818347,111.9436,08/12.0/2021,2000,g 11.5,2.0
# From MPC 99819
P/2015 Q1 (Scotti),e,22.3874,202.8558,199.8379,3.474815,0.1521621,0.47806172,331.7600,08/12.0/2021,2000,g 14.0,4.0
# From MPC 96867
P/2015 Q2 (Pimentel),e,146.5114,228.4498,244.5346,7.349976,0.0494624,0.75063811,107.1960,08/12.0/2021,2000,g 15.5,4.0
# From MPC 98562
P/2015 R1 (PANSTARRS),e,22.6838,48.3978,300.4682,5.880102,0.0691237,0.63430894,154.5633,08/12.0/2021,2000,g 14.0,4.0
# From MPC 95734
P/2015 R2 (PANSTARRS),e,15.4833,168.5972,149.7885,4.487581,0.1036778,0.45294150,233.4284,08/12.0/2021,2000,g 14.5,4.0
# From MPC117068
C/2015 T2 (PANSTARRS),e,124.5561,51.0090,30.6545,1784,0.0000131,0.99611174,0.0000,05/18.1917/2017,2000,g  8.0,4.0
# From MPC 96280
P/2015 T3 (PANSTARRS),e,13.0937,120.5019,178.6330,4.326181,0.1095335,0.50818108,359.9227,12/21.0/2014,2000,g 14.0,4.0
# From MPC102953
C/2015 T4 (PANSTARRS),e,88.0257,251.8571,270.0779,79.53236,0.0013896,0.97107038,0.0000,06/16.5245/2016,2000,g 11.0,4.0
# From MPC102953
P/2015 TO19 (Lemmon-PANSTARRS),e,6.4995,321.6515,89.1126,4.555044,0.1013830,0.35845368,201.2994,08/12.0/2021,2000,g 14.0,4.0
# From MPC110080
P/2015 TP200 (LINEAR),e,8.7790,7.0085,82.5484,7.271724,0.0502629,0.53518963,87.9528,08/12.0/2021,2000,g 11.0,4.0
# From MPC101097
C/2015 TQ209 (LINEAR),e,11.3067,223.4018,282.0895,540.6684,0.0000784,0.99738215,0.0000,08/24.9240/2016,2000,g 10.5,4.0
# From MPC115881
C/2015 V1 (PANSTARRS),e,139.2254,197.1697,179.6243,2077,0.0000104,0.99794365,0.0000,12/16.6114/2017,2000,g  6.5,4.0
# From MPC112390
C/2015 V2 (Johnson),h,06/11.6017/2017,49.8374,69.9354,165.0002,1.001830,1.646143,2000,5.0,4.0
# From MPC104791
C/2015 V4 (PANSTARRS),e,60.7961,179.9481,306.9207,18.45719,0.0124296,0.70433331,22.4978,08/12.0/2021,2000,g  8.5,4.0
# From MPC115881
C/2015 VL62 (Lemmon-Yeung-PANSTARRS),h,08/27.8594/2017,165.8188,95.1277,128.8629,1.001399,2.720837,2000,8.0,4.0
# From MPC101098
P/2015 W2 (Catalina),e,11.6071,294.2369,117.4852,7.293756,0.0500354,0.63428172,107.1571,08/12.0/2021,2000,g 13.0,4.0
# From MPEC 2021-N06
P/2015 X1 (PANSTARRS),e,12.1517,161.7633,218.8875,3.633571,0.1422996,0.41912420,304.3544,08/12.0/2021,2000,g 16.0,4.0
# From MPEC 2021-P47
C/2015 XY1 (Lemmon),h,04/26.9605/2018,148.8533,281.6120,196.1895,1.001787,7.922765,2000,5.5,4.0
# From MPC 97498
P/2015 X3 (PANSTARRS),e,24.3918,77.2987,306.6723,5.007969,0.0879451,0.43928325,193.0333,08/12.0/2021,2000,g 15.0,4.0
# From MPC119995
C/2015 X5 (PANSTARRS),h,12/28.6725/2017,124.3088,122.3422,27.6139,1.000976,6.795505,2000,7.5,4.0
# From MPC115881
P/2015 X6 (PANSTARRS),e,4.5646,106.9458,329.8461,2.753454,0.2157185,0.17269020,64.4847,08/12.0/2021,2000,g 16.0,4.0
# From MPC109143
C/2015 X7 (ATLAS),e,57.5592,139.9335,348.3258,5263,0.0000026,0.99930123,0.0000,07/28.9592/2016,2000,g  9.0,4.0
# From MPEC 2021-P47
C/2016 A1 (PANSTARRS),h,11/22.0108/2017,121.2055,128.2054,10.1888,1.000624,5.320146,2000,6.0,4.0
# From MPC100282
P/2016 A2 (Christensen),e,26.4039,291.6173,141.4027,4.752465,0.0951318,0.27052962,213.9789,08/12.0/2021,2000,g 11.5,4.0
# From MPC115881
P/2016 A3 (PANSTARRS),e,8.5101,187.2433,341.0230,7.887944,0.0444896,0.38656280,69.7034,08/12.0/2021,2000,g 10.0,4.0
# From MPC102098
P/2016 A7 (PANSTARRS),e,16.6121,221.4945,352.6088,5.033096,0.0872873,0.56476950,174.2966,08/12.0/2021,2000,g 16.0,4.0
# From MPC106345
C/2016 A8 (LINEAR),e,148.2429,111.3632,130.4911,34.38813,0.0048876,0.94495363,8.8416,08/12.0/2021,2000,g 12.0,4.0
# From MPC107048
C/2016 B1 (NEOWISE),e,50.4332,232.0362,8.6845,433.2589,0.0001093,0.99257178,0.0000,12/04.2173/2016,2000,g  9.5,4.0
# From MPC109143
P/2016 BA14 (PANSTARRS),e,18.8938,180.5266,351.8879,3.024991,0.1873346,0.66518014,10.4305,08/12.0/2021,2000,g 21.0,4.0
# From MPC110494
C/2016 E1 (PANSTARRS),h,06/04.3695/2017,131.8802,233.1015,47.4779,1.006440,8.177492,2000,6.5,4.0
# From MPEC 2021-P47
P/2016 G1 (PANSTARRS),e,10.9703,204.0226,111.1588,2.582968,0.2374246,0.21115425,33.9492,08/12.0/2021,2000,g 14.0,4.0
# From MPEC 2017-D91
P/2016 J1-A (PANSTARRS),e,14.3277,199.8105,46.9652,3.172950,0.1743850,0.22793372,326.4112,08/12.0/2021,2000,g 16.5,4.0
# From MPEC 2017-A77
P/2016 J1-B (PANSTARRS),e,14.3305,199.8154,46.8563,3.172579,0.1744156,0.22778431,326.5432,08/12.0/2021,2000,g 17.0,4.0
# From MPC104792
C/2016 K1 (LINEAR),h,07/13.7586/2016,90.9489,325.6097,18.3470,1.000375,2.297233,2000,13.0,4.0
# From MPC119995
C/2016 M1 (PANSTARRS),e,90.9685,92.2224,209.9209,18016,0.0000004,0.99987714,0.0000,08/10.4881/2018,2000,g  5.0,4.0
# From MPEC 2021-N06
C/2016 N4 (MASTER),e,72.6390,353.9915,55.9432,3297,0.0000052,0.99903039,0.0000,09/16.8796/2017,2000,g  8.5,4.0
# From MPEC 2021-P47
C/2016 N6 (PANSTARRS),e,105.8419,298.9820,162.6808,1259,0.0000221,0.99788461,0.0000,07/17.9067/2018,2000,g  7.0,4.0
# From MPC102099
P/2016 P1 (PANSTARRS),e,24.4563,319.5650,270.1050,3.193260,0.1727240,0.28905790,10.8317,08/12.0/2021,2000,g 15.0,4.0
# From MPC102099
C/2016 P4 (PANSTARRS),e,29.8803,320.7231,356.2806,423.3749,0.0001131,0.98606162,0.0000,10/18.8829/2016,2000,g 10.5,4.0
# From MPEC 2021-P47
C/2016 Q2 (PANSTARRS),h,05/11.9664/2021,109.3883,322.2953,84.5342,1.000987,7.081870,2000,6.0,4.0
# From MPC102955
C/2016 Q4 (Kowalski),e,7.2544,271.2935,99.4850,16.95792,0.0141138,0.58203960,18.2258,08/12.0/2021,2000,g  7.0,4.0
# From MPEC 2021-N06
C/2016 R2 (PANSTARRS),e,58.2505,80.5511,33.1356,492.7886,0.0000901,0.99472199,0.0000,05/09.0059/2018,2000,g  7.0,4.0
# From MPC102099
C/2016 R3 (Borisov),e,53.0234,78.8336,118.1471,196.6998,0.0003573,0.99768954,0.0000,10/09.7633/2016,2000,g 18.0,4.0
# From MPC109144
P/2016 R4 (Gibbs),e,10.8759,168.2647,174.0524,5.331617,0.0800600,0.47640219,147.8154,08/12.0/2021,2000,g 12.5,4.0
# From MPC105543
P/2016 S1 (PANSTARRS),e,94.6911,227.5742,273.2806,8.278174,0.0413811,0.70995277,66.6269,08/12.0/2021,2000,g 12.0,4.0
# From MPC105238
C/2016 T1 (Matheny),e,129.8512,56.3685,137.5096,125.7844,0.0006987,0.98166734,0.0000,02/01.5193/2017,2000,g 14.5,4.0
# From MPC107685
C/2016 T2 (Matheny),e,81.4077,339.1936,92.1823,99.34588,0.0009954,0.98085636,0.0000,12/29.6722/2016,2000,g 14.5,4.0
# From MPC110082
C/2016 T3 (PANSTARRS),e,22.6886,271.7132,194.6084,129.9988,0.0006650,0.97965382,0.0000,09/06.4237/2017,2000,g 10.5,4.0
# From MPC103847
C/2016 U1 (NEOWISE),h,01/13.6245/2017,46.2402,61.6132,162.8007,1.000402,0.324341,2000,17.0,4.0
# From MPC106345
C/2016 VZ18 (PANSTARRS),e,23.9876,98.9232,36.3838,159.9706,0.0004871,0.99428669,0.0000,03/05.0932/2017,2000,g 19.5,4.0
# From MPC106345
P/2016 WM48 (Lemmon),e,117.4818,59.9084,36.0928,8.165063,0.0422440,0.78370267,68.8825,08/12.0/2021,2000,g 15.0,4.0
# From MPEC 2021-P47
C/2016 X1 (Lemmon),e,26.4529,256.3934,224.4836,1250,0.0000223,0.99395179,0.0000,04/28.1579/2019,2000,g  6.0,4.0
# From MPC108594
C/2017 A1 (PANSTARRS),e,49.7965,121.0382,1.9777,75.54446,0.0015011,0.96970799,2.3252,08/12.0/2021,2000,g 13.0,4.0
# From MPC108594
C/2017 A3 (Elenin),e,98.5195,97.8818,303.9621,43.39978,0.0034472,0.91145004,5.7019,08/12.0/2021,2000,g  9.5,4.0
# From MPC114598
C/2017 AB5 (PANSTARRS),e,32.4476,42.6251,78.3105,2240,0.0000093,0.99588822,0.0000,02/14.8420/2018,2000,g  5.5,4.0
# From MPEC 2021-P47
C/2017 B3 (LINEAR),h,02/02.4319/2019,54.1643,2.1779,284.8063,1.001319,3.924401,2000,6.0,4.0
# From MPC103847
P/2017 B4 (PANSTARRS),e,20.0584,121.4578,11.0197,4.410520,0.1064068,0.36495152,359.9130,01/05.0/2017,2000,g 14.5,4.0
# From MPC104793
C/2017 C1 (NEOWISE),e,65.7678,357.5804,110.0204,20.56223,0.0105706,0.92720070,17.6151,08/12.0/2021,2000,g 18.0,4.0
# From MPC107685
C/2017 C2 (PANSTARRS),e,118.5848,249.7387,138.5466,95.49435,0.0010562,0.97464426,0.0000,01/21.2953/2017,2000,g 14.0,4.0
# From MPC104793
P/2017 D1 (Fuls),e,20.7565,82.1805,8.0058,4.829565,0.0928628,0.43627085,174.1937,08/12.0/2021,2000,g 14.0,4.0
# From MPC112391
C/2017 D2 (Barros),e,31.2585,330.9447,334.5815,7295,0.0000016,0.99965820,0.0000,07/14.8747/2017,2000,g 11.0,4.0
# From MPC114598
C/2017 D3 (ATLAS),h,04/27.4651/2017,125.5891,186.6995,340.8478,1.002226,4.970189,2000,8.0,4.0
# From MPC110495
P/2017 D4 (PANSTARRS),e,10.5331,264.9373,212.2394,7.558547,0.0474293,0.62832032,85.4798,08/12.0/2021,2000,g 13.0,4.0
# From MPC104794
C/2017 D5 (PANSTARRS),e,131.0384,92.6888,287.6634,113.7661,0.0008122,0.98104503,0.0000,01/09.7147/2017,2000,g 16.0,4.0
# From MPC106346
C/2017 E1 (Borisov),h,04/10.6015/2017,14.5733,142.5587,152.7467,1.003187,0.904160,2000,14.0,4.0
# From MPEC 2021-P47
C/2017 E3 (PANSTARRS),h,06/07.6772/2017,70.6500,220.7682,334.5001,1.006297,5.938258,2000,6.5,4.0
# From MPC105239
C/2017 E4 (Lovejoy),h,04/23.5567/2017,88.0247,222.9024,87.0680,1.001492,0.491092,2000,17.0,4.0
# From MPC111769
C/2017 F1 (Lemmon),h,11/29.5948/2017,146.4596,158.7889,64.7360,1.002775,4.496311,2000,10.5,4.0
# From MPC114598
C/2017 F2 (PANSTARRS),h,11/26.7732/2017,42.5355,38.6841,134.9981,1.002870,6.930686,2000,7.5,4.0
# From MPC104794
P/2017 G1 (PANSTARRS),e,4.7761,249.6347,224.4869,7.283356,0.0501426,0.65294759,96.9317,08/12.0/2021,2000,g 13.5,4.0
# From MPC108595
P/2017 G2 (PANSTARRS),e,47.9475,79.7911,105.5256,8.061761,0.0430585,0.64783226,65.5922,08/12.0/2021,2000,g 13.0,4.0
# From MPEC 2021-P47
C/2017 G3 (PANSTARRS),e,159.0466,279.4696,73.0870,315.5245,0.0001759,0.99180420,0.0000,04/16.1481/2017,2000,g 14.0,4.0
# From MPC115882
C/2017 K1 (PANSTARRS),h,03/17.8767/2018,154.0180,225.6885,4.4320,1.002996,7.289254,2000,7.0,4.0
# From MPEC 2021-P47
C/2017 K2 (PANSTARRS),h,12/19.7304/2022,87.5539,88.2426,236.1914,1.000595,1.797357,2000,1.5,4.0
# From MPEC 2021-N06
P/2017 K3 (Gasparovic),e,4.2731,354.2886,253.4386,5.582978,0.0747145,0.58005064,114.6429,08/12.0/2021,2000,g 14.5,4.0
# From MPC114598
C/2017 K4 (ATLAS),e,16.6780,298.8764,15.2830,28.60441,0.0064425,0.90722086,8.4491,08/12.0/2021,2000,g 10.0,4.0
# From MPEC 2021-P47
